ORBCOMM FM103           
1 40091U 14040F   23288.60978379  .00001638  00000+0  40644-3 0  9993
2 40091  47.0080  16.0225 0001944 333.8148  26.2638 14.55975107475062
ORBCOMM FM114           
1 41179U 15081A   23289.26275418  .00001415  00000+0  35621-3 0  9996
2 41179  47.0027 282.3068 0001192  28.8577 331.2373 14.55984871415579
ORBCOMM FM110           
1 41182U 15081D   23288.96527255  .00001697  00000+0  41964-3 0  9994
2 41182  47.0017 283.1333 0002753 270.0435  90.0134 14.55986373415354
ORBCOMM FM118           
1 41183U 15081E   23288.39357233  .00001800  00000+0  44287-3 0  9996
2 41183  47.0041 286.0883 0002928 264.2679  95.7872 14.55989158415370
ORBCOMM FM112           
1 41184U 15081F   23288.86499551  .00002157  00000+0  52304-3 0  9994
2 41184  46.9979 192.6299 0000890 105.2048 254.8935 14.55998141416711
ORBCOMM FM113           
1 41185U 15081G   23288.84109692  .00002000  00000+0  48790-3 0  9998
2 41185  46.9999 192.9622 0000588 143.9813 216.1112 14.55985694416649
ORBCOMM FM119 [-]       
1 41180U 15081B   23288.47513029  .00001534  00000+0  38303-3 0  9995
2 41180  46.9999 195.2065 0000906 152.2457 207.8476 14.55970555416664
ORBCOMM FM105 [-]       
1 41181U 15081C   23288.85898892  .00000632  00000+0  22856-3 0  9996
2 41181  47.0008 141.5538 0001382 110.6590 249.4438 14.44055556412504
